*******************************************************************************
Ephemeris / WWW_USER Mon Mar 10 07:23:42 2025 Pasadena, USA      / Horizons    
*******************************************************************************
Target body name: (2018 PC20)                     {source: JPL#4}
Center body name: Earth (399)                     {source: DE441}
Center-site name: Mauna Kea
*******************************************************************************
Start time      : A.D. 2018-Aug-09 05:04:00.0000 UT      
Stop  time      : A.D. 2018-Aug-09 15:50:00.0000 UT      
Step-size       : 1 minutes
*******************************************************************************
Target pole/equ : undefined
Target radii    : undefined                                                    
Center geodetic : 204.5278, 19.8260847, 4.21024   {E-lon(deg),Lat(deg),Alt(km)}
Center cylindric: 204.5278, 6006.35451, 2151.0229 {E-lon(deg),Dxy(km),Dz(km)}
Center pole/equ : ITRF93                          {East-longitude positive}
Center radii    : 6378.137, 6378.137, 6356.752 km {Equator_a, b, pole_c}       
Target primary  : Sun
Vis. interferer : MOON (R_eq= 1737.400) km        {source: DE441}
Rel. light bend : Sun                             {source: DE441}
Rel. lght bnd GM: 1.3271E+11 km^3/s^2                                          
Small-body perts: Yes                             {source: SB441-N16}
Atmos refraction: NO (AIRLESS)
RA format       : HMS
Time format     : CAL 
Calendar mode   : Mixed Julian/Gregorian
RTS-only print  : NO       
EOP file        : eop.250307.p250603                                           
EOP coverage    : DATA-BASED 1962-JAN-20 TO 2025-MAR-07. PREDICTS-> 2025-JUN-02
Units conversion: 1 au= 149597870.700 km, c= 299792.458 km/s, 1 day= 86400.0 s 
Table cut-offs 1: Elevation (-90.0deg=NO ),Airmass (>38.000=NO), Daylight (YES)
Table cut-offs 2: Solar elongation (  0.0,180.0=NO ),Local Hour Angle( 0.0=NO )
Table cut-offs 3: RA/DEC angular rate (     0.0=NO )                           
*******************************************************************************
Initial IAU76/J2000 heliocentric ecliptic osculating elements (au, days, deg.):
  EPOCH=  2458343.5 ! 2018-Aug-13.00 (TDB)         Residual RMS= .24519        
   EC= .404352607301711    QR= 1.018354806317198   TP= 2458318.6524357731      
   OM= 139.299704166656    W=  153.5303944744985   IN= 8.986086735514593       
  Equivalent ICRF heliocentric cartesian coordinates (au, au/d):
   X= 8.116079301925467E-01  Y=-6.140581064636024E-01  Z=-2.698058679324596E-01
  VX= 1.436448164656351E-02 VY= 1.329561442287599E-02 VZ= 2.429594529488231E-03
Asteroid physical parameters (km, seconds, rotational period in hours):        
   GM= n.a.                RAD= n.a.               ROTPER= n.a.                
   H= 25.2                 G= .150                 B-V= n.a.                   
                           ALBEDO= n.a.            STYP= n.a.                  
*******************************************************************************
 Date__(UT)__HR:MN     R.A._________(ICRF)_________DEC
******************************************************
$$SOE
 2018-Aug-09 09:10     21 11 56.900174 -00 59 36.01871
 2018-Aug-09 09:11     21 11 57.856339 -00 59 48.69938
 2018-Aug-09 09:12     21 11 58.812326 -01 00 01.37900
 2018-Aug-09 09:13     21 11 59.768137 -01 00 14.05757
 2018-Aug-09 09:14     21 12 00.723771 -01 00 26.73508
 2018-Aug-09 09:15     21 12 01.679232 -01 00 39.41154
 2018-Aug-09 09:16     21 12 02.634520 -01 00 52.08694
 2018-Aug-09 09:17     21 12 03.589636 -01 01 04.76129
 2018-Aug-09 09:18     21 12 04.544582 -01 01 17.43457
 2018-Aug-09 09:19     21 12 05.499360 -01 01 30.10680
 2018-Aug-09 09:20     21 12 06.453970 -01 01 42.77796
 2018-Aug-09 09:21     21 12 07.408414 -01 01 55.44806
 2018-Aug-09 09:22     21 12 08.362694 -01 02 08.11710
 2018-Aug-09 09:23     21 12 09.316811 -01 02 20.78507
 2018-Aug-09 09:24     21 12 10.270766 -01 02 33.45198
 2018-Aug-09 09:25     21 12 11.224560 -01 02 46.11782
 2018-Aug-09 09:26     21 12 12.178196 -01 02 58.78259
 2018-Aug-09 09:27     21 12 13.131674 -01 03 11.44629
 2018-Aug-09 09:28     21 12 14.084996 -01 03 24.10892
 2018-Aug-09 09:29     21 12 15.038163 -01 03 36.77049
 2018-Aug-09 09:30     21 12 15.991176 -01 03 49.43097
 2018-Aug-09 09:31     21 12 16.944038 -01 04 02.09039
 2018-Aug-09 09:32     21 12 17.896748 -01 04 14.74873
 2018-Aug-09 09:33     21 12 18.849310 -01 04 27.40599
 2018-Aug-09 09:34     21 12 19.801724 -01 04 40.06218
 2018-Aug-09 09:35     21 12 20.753991 -01 04 52.71729
 2018-Aug-09 09:36     21 12 21.706113 -01 05 05.37132
 2018-Aug-09 09:37     21 12 22.658092 -01 05 18.02427
 2018-Aug-09 09:38     21 12 23.609928 -01 05 30.67613
 2018-Aug-09 09:39     21 12 24.561623 -01 05 43.32692
 2018-Aug-09 09:40     21 12 25.513179 -01 05 55.97662
 2018-Aug-09 09:41     21 12 26.464597 -01 06 08.62523
 2018-Aug-09 09:42     21 12 27.415878 -01 06 21.27276
 2018-Aug-09 09:43     21 12 28.367024 -01 06 33.91920
 2018-Aug-09 09:44     21 12 29.318037 -01 06 46.56456
 2018-Aug-09 09:45     21 12 30.268916 -01 06 59.20882
 2018-Aug-09 09:46     21 12 31.219665 -01 07 11.85199
 2018-Aug-09 09:47     21 12 32.170284 -01 07 24.49407
 2018-Aug-09 09:48     21 12 33.120776 -01 07 37.13506
 2018-Aug-09 09:49     21 12 34.071140 -01 07 49.77495
 2018-Aug-09 09:50     21 12 35.021379 -01 08 02.41375
 2018-Aug-09 09:51     21 12 35.971494 -01 08 15.05146
 2018-Aug-09 09:52     21 12 36.921486 -01 08 27.68806
 2018-Aug-09 09:53     21 12 37.871357 -01 08 40.32357
 2018-Aug-09 09:54     21 12 38.821109 -01 08 52.95797
 2018-Aug-09 09:55     21 12 39.770742 -01 09 05.59128
 2018-Aug-09 09:56     21 12 40.720258 -01 09 18.22348
 2018-Aug-09 09:57     21 12 41.669659 -01 09 30.85458
 2018-Aug-09 09:58     21 12 42.618946 -01 09 43.48458
 2018-Aug-09 09:59     21 12 43.568121 -01 09 56.11347
 2018-Aug-09 10:00     21 12 44.517184 -01 10 08.74126
 2018-Aug-09 10:01     21 12 45.466137 -01 10 21.36794
 2018-Aug-09 10:02     21 12 46.414982 -01 10 33.99351
 2018-Aug-09 10:03     21 12 47.363720 -01 10 46.61797
 2018-Aug-09 10:04     21 12 48.312352 -01 10 59.24132
 2018-Aug-09 10:05     21 12 49.260881 -01 11 11.86355
 2018-Aug-09 10:06     21 12 50.209306 -01 11 24.48468
 2018-Aug-09 10:07     21 12 51.157631 -01 11 37.10469
 2018-Aug-09 10:08     21 12 52.105855 -01 11 49.72358
 2018-Aug-09 10:09     21 12 53.053982 -01 12 02.34136
 2018-Aug-09 10:10     21 12 54.002011 -01 12 14.95803
 2018-Aug-09 10:11     21 12 54.949944 -01 12 27.57357
 2018-Aug-09 10:12     21 12 55.897784 -01 12 40.18799
 2018-Aug-09 10:13     21 12 56.845531 -01 12 52.80130
 2018-Aug-09 10:14     21 12 57.793186 -01 13 05.41348
 2018-Aug-09 10:15     21 12 58.740752 -01 13 18.02454
 2018-Aug-09 10:16     21 12 59.688229 -01 13 30.63447
 2018-Aug-09 10:17     21 13 00.635619 -01 13 43.24328
 2018-Aug-09 10:18     21 13 01.582923 -01 13 55.85097
 2018-Aug-09 10:19     21 13 02.530143 -01 14 08.45753
 2018-Aug-09 10:20     21 13 03.477281 -01 14 21.06296
 2018-Aug-09 10:21     21 13 04.424337 -01 14 33.66726
 2018-Aug-09 10:22     21 13 05.371313 -01 14 46.27043
 2018-Aug-09 10:23     21 13 06.318211 -01 14 58.87247
 2018-Aug-09 10:24  e  21 13 07.265031 -01 15 11.47338
 2018-Aug-09 10:25  t  21 13 08.211776 -01 15 24.07315
 2018-Aug-09 10:26     21 13 09.158447 -01 15 36.67179
 2018-Aug-09 10:27     21 13 10.105045 -01 15 49.26929
 2018-Aug-09 10:28     21 13 11.051572 -01 16 01.86566
 2018-Aug-09 10:29     21 13 11.998028 -01 16 14.46089
 2018-Aug-09 10:30     21 13 12.944416 -01 16 27.05498
 2018-Aug-09 10:31     21 13 13.890737 -01 16 39.64794
 2018-Aug-09 10:32     21 13 14.836992 -01 16 52.23975
 2018-Aug-09 10:33     21 13 15.783183 -01 17 04.83042
 2018-Aug-09 10:34     21 13 16.729311 -01 17 17.41994
 2018-Aug-09 10:35     21 13 17.675378 -01 17 30.00833
 2018-Aug-09 10:36     21 13 18.621384 -01 17 42.59556
 2018-Aug-09 10:37     21 13 19.567332 -01 17 55.18166
 2018-Aug-09 10:38     21 13 20.513223 -01 18 07.76660
 2018-Aug-09 10:39     21 13 21.459058 -01 18 20.35040
 2018-Aug-09 10:40     21 13 22.404839 -01 18 32.93305
 2018-Aug-09 10:41     21 13 23.350566 -01 18 45.51455
 2018-Aug-09 10:42     21 13 24.296243 -01 18 58.09490
 2018-Aug-09 10:43     21 13 25.241869 -01 19 10.67409
 2018-Aug-09 10:44     21 13 26.187446 -01 19 23.25213
 2018-Aug-09 10:45     21 13 27.132976 -01 19 35.82902
 2018-Aug-09 10:46     21 13 28.078460 -01 19 48.40476
 2018-Aug-09 10:47     21 13 29.023900 -01 20 00.97934
 2018-Aug-09 10:48     21 13 29.969297 -01 20 13.55276
 2018-Aug-09 10:49     21 13 30.914652 -01 20 26.12502
 2018-Aug-09 10:50     21 13 31.859967 -01 20 38.69613
 2018-Aug-09 10:51     21 13 32.805243 -01 20 51.26607
 2018-Aug-09 10:52     21 13 33.750481 -01 21 03.83485
 2018-Aug-09 10:53     21 13 34.695684 -01 21 16.40248
 2018-Aug-09 10:54     21 13 35.640852 -01 21 28.96894
 2018-Aug-09 10:55     21 13 36.585987 -01 21 41.53423
 2018-Aug-09 10:56     21 13 37.531090 -01 21 54.09836
 2018-Aug-09 10:57     21 13 38.476162 -01 22 06.66133
 2018-Aug-09 10:58     21 13 39.421206 -01 22 19.22312
 2018-Aug-09 10:59     21 13 40.366222 -01 22 31.78375
 2018-Aug-09 11:00     21 13 41.311212 -01 22 44.34322
 2018-Aug-09 11:01     21 13 42.256177 -01 22 56.90151
 2018-Aug-09 11:02     21 13 43.201119 -01 23 09.45863
 2018-Aug-09 11:03     21 13 44.146038 -01 23 22.01458
 2018-Aug-09 11:04     21 13 45.090938 -01 23 34.56936
 2018-Aug-09 11:05     21 13 46.035817 -01 23 47.12296
 2018-Aug-09 11:06     21 13 46.980680 -01 23 59.67539
 2018-Aug-09 11:07     21 13 47.925525 -01 24 12.22665
 2018-Aug-09 11:08     21 13 48.870356 -01 24 24.77672
 2018-Aug-09 11:09     21 13 49.815173 -01 24 37.32563
 2018-Aug-09 11:10     21 13 50.759978 -01 24 49.87335
 2018-Aug-09 11:11     21 13 51.704771 -01 25 02.41989
 2018-Aug-09 11:12     21 13 52.649556 -01 25 14.96526
